STARLINK-2675           
1 48470U 21040AU  26187.96692126  .00012763  00000+0  42205-3 0  9999
2 48470  53.1594 356.0824 0001138  73.0305 287.0821 15.31723009284778
STARLINK-2684           
1 48471U 21040AV  26187.76651604  .00023343  00000+0  76126-3 0  9999
2 48471  53.1607 357.0244 0001035  82.7635 277.3484 15.31715750284748
STARLINK-2722           
1 48472U 21040AW  26187.95959830  .00017968  00000+0  10140-2 0  9992
2 48472  53.0600  12.5569 0001594 112.4457 247.6704 15.13223274284512
STARLINK-2658           
1 48473U 21040AX  26187.71524178  .00012053  00000+0  39958-3 0  9999
2 48473  53.1590 357.2134 0000970 104.8395 255.2714 15.31695302284737
STARLINK-2697           
1 48474U 21040AY  26187.75261380  .00001464  00000+0  58928-4 0  9990
2 48474  53.1611 357.7936 0000797  86.3827 273.7266 15.31701291284729
STARLINK-2728           
1 48478U 21040BC  26187.73856834  .00007437  00000+0  25125-3 0  9994
2 48478  53.1606 357.2440 0001199  87.3557 272.7581 15.31689715284736
STARLINK-2755           
1 48479U 21040BD  26187.69198899  .00021870  00000+0  71433-3 0  9990
2 48479  53.1599 357.7112 0000882  71.9710 288.1387 15.31705600284723
STARLINK-2706           
1 48481U 21040BF  26187.97724811  .00017535  00000+0  57528-3 0  9995
2 48481  53.1587 358.4870 0000931  81.4512 278.6595 15.31712016284749
STARLINK-2525           
1 48482U 21040BG  26187.75358573  .00004683  00000+0  16265-3 0  9993
2 48482  53.1604 359.9448 0001278  77.5161 282.5984 15.31687245284705
STARLINK-2531           
1 48483U 21040BH  26187.76759706  .00015691  00000+0  51639-3 0  9993
2 48483  53.1591   0.0578 0000856  76.4240 283.6857 15.31696425284707
STARLINK-2500           
1 48485U 21040BK  26187.73957848  .00006280  00000+0  21400-3 0  9996
2 48485  53.1616 359.8318 0000818  98.7379 261.3715 15.31692311284708
STARLINK-2494           
1 48487U 21040BM  26187.71165953  .00004701  00000+0  16314-3 0  9998
2 48487  53.1597   0.2655 0001292 111.4264 248.6875 15.31706615284700
STARLINK-2063           
1 48553U 21041A   26187.57338932 -.00000210  00000+0  50002-5 0  9992
2 48553  53.1596 293.6774 0001001  88.0635 272.0481 15.31701487283493
STARLINK-2139           
1 48554U 21041B   26187.56871230 -.00002052  00000+0 -54384-4 0  9998
2 48554  53.1595 293.5977 0001118  88.5574 271.5556 15.31692502283497
STARLINK-2145           
1 48555U 21041C   26187.64429419  .00004112  00000+0  14416-3 0  9994
2 48555  53.1600 315.4916 0001065 115.0786 245.0326 15.31704246283179
STARLINK-2151           
1 48556U 21041D   26187.63808808  .00000014  00000+0  12207-4 0  9991
2 48556  53.1596 309.0168 0000795 106.9310 253.1779 15.31707000283277
STARLINK-2155           
1 48557U 21041E   26187.60602368  .00003068  00000+0  11058-3 0  9996
2 48557  53.1590 293.5774 0000995  84.2612 275.8503 15.31696942283499
STARLINK-2166           
1 48558U 21041F   26187.86236546  .00000278  00000+0  20747-4 0  9992
2 48558  53.1579 292.3753 0001726  51.9430 308.1727 15.31696949282677
STARLINK-2187           
1 48562U 21041K   26188.13171696  .00066570  00000+0  53000-3 0  9996
2 48562  53.1533 278.5817 0001988  26.0010 334.1108 15.70597911283750
STARLINK-2188           
1 48563U 21041L   26187.58736683  .00002414  00000+0  89510-4 0  9991
2 48563  53.1593 293.5372 0001297  92.0671 268.0479 15.31710071283497
STARLINK-2190           
1 48564U 21041M   26187.77378782  .00000176  00000+0  17439-4 0  9999
2 48564  53.1594 292.6460 0001183  81.8908 278.2228 15.31706010283527
STARLINK-2214           
1 48566U 21041P   26187.83538894  .00009407  00000+0  31452-3 0  9996
2 48566  53.1593 314.5648 0001087  76.2019 283.9103 15.31700465283202
STARLINK-2217           
1 48568U 21041R   26187.59674111  .00000806  00000+0  37736-4 0  9990
2 48568  53.1578 293.9103 0001019  97.8889 262.2228 15.31696049283482
STARLINK-2219           
1 48569U 21041S   26187.58269186  .00002848  00000+0  10345-3 0  9996
2 48569  53.1595 293.5463 0001080  95.3241 264.7884 15.31714088283490
STARLINK-2221           
1 48571U 21041U   26187.60042080  .00010274  00000+0  34247-3 0  9993
2 48571  53.1605 306.3038 0001135  41.7277 318.3811 15.31691037283316
STARLINK-2222           
1 48572U 21041V   26187.61632988  .00006911  00000+0  23422-3 0  9993
2 48572  53.1610 315.5939 0001339  38.5091 321.6006 15.31707979283179
STARLINK-2224           
1 48573U 21041W   26187.61541142  .00000351  00000+0  23084-4 0  9992
2 48573  53.1611 294.0497 0001143  71.4027 288.7098 15.31702122283482
STARLINK-2225           
1 48574U 21041X   26188.20110760  .00000193  00000+0  17981-4 0  9990
2 48574  53.1603 264.9275 0001027  79.7278 280.3839 15.31692096283944
STARLINK-2227           
1 48575U 21041Y   26187.46165248 -.00002249  00000+0 -60749-4 0  9995
2 48575  53.1592 255.6116 0001449  76.9905 283.1258 15.31690849284027
STARLINK-2228           
1 48576U 21041Z   26187.47404201 -.00004342  00000+0 -12828-3 0  9992
2 48576  53.1600 268.4042 0001453  88.8289 271.2879 15.31688104283847
