OBJECT_NAME,OBJECT_ID,EPOCH,MEAN_MOTION,ECCENTRICITY,INCLINATION,RA_OF_ASC_NODE,ARG_OF_PERICENTER,MEAN_ANOMALY,EPHEMERIS_TYPE,CLASSIFICATION_TYPE,NORAD_CAT_ID,ELEMENT_SET_NO,REV_AT_EPOCH,BSTAR,MEAN_MOTION_DOT,MEAN_MOTION_DDOT
STARLINK-2675,2021-040AU,2026-07-06T23:12:21.996864,15.31723009,.0001138,53.1594,356.0824,73.0305,287.0821,0,U,48470,999,28477,.42205E-3,.12763E-3,0
STARLINK-2684,2021-040AV,2026-07-06T18:23:46.985856,15.31715750,.0001035,53.1607,357.0244,82.7635,277.3484,0,U,48471,999,28474,.76126E-3,.23343E-3,0
STARLINK-2722,2021-040AW,2026-07-06T23:01:49.293120,15.13223274,.0001594,53.0600,12.5569,112.4457,247.6704,0,U,48472,999,28451,.1014E-2,.17968E-3,0
STARLINK-2658,2021-040AX,2026-07-06T17:09:56.889792,15.31695302,.000097,53.1590,357.2134,104.8395,255.2714,0,U,48473,999,28473,.39958E-3,.12053E-3,0
STARLINK-2697,2021-040AY,2026-07-06T18:03:45.832320,15.31701291,.0000797,53.1611,357.7936,86.3827,273.7266,0,U,48474,999,28472,.58928E-4,.1464E-4,0
STARLINK-2728,2021-040BC,2026-07-06T17:43:32.304576,15.31689715,.0001199,53.1606,357.2440,87.3557,272.7581,0,U,48478,999,28473,.25125E-3,.7437E-4,0
STARLINK-2755,2021-040BD,2026-07-06T16:36:27.848736,15.31705600,.0000882,53.1599,357.7112,71.9710,288.1387,0,U,48479,999,28472,.71433E-3,.2187E-3,0
STARLINK-2706,2021-040BF,2026-07-06T23:27:14.236704,15.31712016,.0000931,53.1587,358.4870,81.4512,278.6595,0,U,48481,999,28474,.57528E-3,.17535E-3,0
STARLINK-2525,2021-040BG,2026-07-06T18:05:09.807072,15.31687245,.0001278,53.1604,359.9448,77.5161,282.5984,0,U,48482,999,28470,.16265E-3,.4683E-4,0
STARLINK-2531,2021-040BH,2026-07-06T18:25:20.385984,15.31696425,.0000856,53.1591,0.0578,76.4240,283.6857,0,U,48483,999,28470,.51639E-3,.15691E-3,0
STARLINK-2500,2021-040BK,2026-07-06T17:44:59.580672,15.31692311,.0000818,53.1616,359.8318,98.7379,261.3715,0,U,48485,999,28470,.214E-3,.628E-4,0
STARLINK-2494,2021-040BM,2026-07-06T17:04:47.383392,15.31706615,.0001292,53.1597,0.2655,111.4264,248.6875,0,U,48487,999,28470,.16314E-3,.4701E-4,0
STARLINK-2063,2021-041A,2026-07-06T13:45:40.837248,15.31701487,.0001001,53.1596,293.6774,88.0635,272.0481,0,U,48553,999,28349,.50002E-5,-.21E-5,0
STARLINK-2139,2021-041B,2026-07-06T13:38:56.742720,15.31692502,.0001118,53.1595,293.5977,88.5574,271.5556,0,U,48554,999,28349,-.54384E-4,-.2052E-4,0
STARLINK-2145,2021-041C,2026-07-06T15:27:47.018016,15.31704246,.0001065,53.1600,315.4916,115.0786,245.0326,0,U,48555,999,28317,.14416E-3,.4112E-4,0
STARLINK-2151,2021-041D,2026-07-06T15:18:50.810112,15.31707000,.0000795,53.1596,309.0168,106.9310,253.1779,0,U,48556,999,28327,.12207E-4,.14E-6,0
STARLINK-2155,2021-041E,2026-07-06T14:32:40.445952,15.31696942,.0000995,53.1590,293.5774,84.2612,275.8503,0,U,48557,999,28349,.11058E-3,.3068E-4,0
STARLINK-2166,2021-041F,2026-07-06T20:41:48.375744,15.31696949,.0001726,53.1579,292.3753,51.9430,308.1727,0,U,48558,999,28267,.20747E-4,.278E-5,0
STARLINK-2187,2021-041K,2026-07-07T03:09:40.345344,15.70597911,.0001988,53.1533,278.5817,26.0010,334.1108,0,U,48562,999,28375,.53E-3,.6657E-3,0
STARLINK-2188,2021-041L,2026-07-06T14:05:48.494112,15.31710071,.0001297,53.1593,293.5372,92.0671,268.0479,0,U,48563,999,28349,.8951E-4,.2414E-4,0
STARLINK-2190,2021-041M,2026-07-06T18:34:15.267648,15.31706010,.0001183,53.1594,292.6460,81.8908,278.2228,0,U,48564,999,28352,.17439E-4,.176E-5,0
STARLINK-2214,2021-041P,2026-07-06T20:02:57.604416,15.31700465,.0001087,53.1593,314.5648,76.2019,283.9103,0,U,48566,999,28320,.31452E-3,.9407E-4,0
STARLINK-2217,2021-041R,2026-07-06T14:19:18.431904,15.31696049,.0001019,53.1578,293.9103,97.8889,262.2228,0,U,48568,999,28348,.37736E-4,.806E-5,0
STARLINK-2219,2021-041S,2026-07-06T13:59:04.576704,15.31714088,.000108,53.1595,293.5463,95.3241,264.7884,0,U,48569,999,28349,.10345E-3,.2848E-4,0
STARLINK-2221,2021-041U,2026-07-06T14:24:36.357120,15.31691037,.0001135,53.1605,306.3038,41.7277,318.3811,0,U,48571,999,28331,.34247E-3,.10274E-3,0
STARLINK-2222,2021-041V,2026-07-06T14:47:30.901632,15.31707979,.0001339,53.1610,315.5939,38.5091,321.6006,0,U,48572,999,28317,.23422E-3,.6911E-4,0
STARLINK-2224,2021-041W,2026-07-06T14:46:11.546688,15.31702122,.0001143,53.1611,294.0497,71.4027,288.7098,0,U,48573,999,28348,.23084E-4,.351E-5,0
STARLINK-2225,2021-041X,2026-07-07T04:49:35.696640,15.31692096,.0001027,53.1603,264.9275,79.7278,280.3839,0,U,48574,999,28394,.17981E-4,.193E-5,0
STARLINK-2227,2021-041Y,2026-07-06T11:04:46.774272,15.31690849,.0001449,53.1592,255.6116,76.9905,283.1258,0,U,48575,999,28402,-.60749E-4,-.2249E-4,0
STARLINK-2228,2021-041Z,2026-07-06T11:22:37.229664,15.31688104,.0001453,53.1600,268.4042,88.8289,271.2879,0,U,48576,999,28384,-.12828E-3,-.4342E-4,0
